{
  "type": "FeatureCollection",
  "features": [
    {
      "type": "Feature",
      "properties": {
        "norad_id": 67054,
        "name": "STARLINK-35754",
        "group": "last-30-days",
        "lat": 19.703653197498536,
        "lon": 162.1516114405666,
        "alt_km": 296.51275193861693,
        "timestamp": "2025-12-19T16:54:42.971011+00:00",
        "meta_object_name": "STARLINK-35754",
        "meta_object_id": "2025-294AA",
        "meta_epoch": "2025-12-19T06:00:02.000160",
        "meta_mean_motion": 15.92782693,
        "meta_eccentricity": 0.00019771,
        "meta_inclination": 43.0003,
        "meta_ra_of_asc_node": 142.3788,
        "meta_arg_of_pericenter": 257.5295,
        "meta_mean_anomaly": 43.2507,
        "meta_ephemeris_type": 0,
        "meta_classification_type": "U",
        "meta_norad_cat_id": 67054,
        "meta_element_set_no": 999,
        "meta_rev_at_epoch": 130,
        "meta_bstar": -0.0047744581,
        "meta_mean_motion_dot": -0.01702869,
        "meta_mean_motion_ddot": 0.00080757053,
        "tle_line1": "1 67054U 25294AA  25353.25002315 -.01702869  80757-3 -47745-2 0  9994",
        "tle_line2": "2 67054  43.0003 142.3788 0001977 257.5295  43.2507 15.92782693  1303"
      },
      "geometry": {
        "type": "Point",
        "coordinates": [
          162.1516114405666,
          19.703653197498536
        ]
      }
    },
    {
      "type": "Feature",
      "properties": {
        "norad_id": 67055,
        "name": "STARLINK-35790",
        "group": "last-30-days",
        "lat": 21.09027742036878,
        "lon": 163.99330257096466,
        "alt_km": 296.1800878251033,
        "timestamp": "2025-12-19T16:54:42.971021+00:00",
        "meta_object_name": "STARLINK-35790",
        "meta_object_id": "2025-294AB",
        "meta_epoch": "2025-12-19T06:00:02.000160",
        "meta_mean_motion": 15.92843817,
        "meta_eccentricity": 0.00019815,
        "meta_inclination": 43.0001,
        "meta_ra_of_asc_node": 142.373,
        "meta_arg_of_pericenter": 257.9943,
        "meta_mean_anomaly": 44.9092,
        "meta_ephemeris_type": 0,
        "meta_classification_type": "U",
        "meta_norad_cat_id": 67055,
        "meta_element_set_no": 999,
        "meta_rev_at_epoch": 130,
        "meta_bstar": -0.0047847692,
        "meta_mean_motion_dot": -0.01711919,
        "meta_mean_motion_ddot": 0.00081600552,
        "tle_line1": "1 67055U 25294AB  25353.25002315 -.01711919  81601-3 -47848-2 0  9994",
        "tle_line2": "2 67055  43.0001 142.3730 0001981 257.9943  44.9092 15.92843817  1301"
      },
      "geometry": {
        "type": "Point",
        "coordinates": [
          163.99330257096466,
          21.09027742036878
        ]
      }
    },
    {
      "type": "Feature",
      "properties": {
        "norad_id": 67056,
        "name": "STARLINK-36143",
        "group": "last-30-days",
        "lat": 24.45473853514599,
        "lon": 168.74176826060125,
        "alt_km": 295.30273037705774,
        "timestamp": "2025-12-19T16:54:42.971033+00:00",
        "meta_object_name": "STARLINK-36143",
        "meta_object_id": "2025-294AC",
        "meta_epoch": "2025-12-19T06:00:02.000160",
        "meta_mean_motion": 15.93011475,
        "meta_eccentricity": 0.00019222,
        "meta_inclination": 43,
        "meta_ra_of_asc_node": 142.3593,
        "meta_arg_of_pericenter": 257.2556,
        "meta_mean_anomaly": 50.9123,
        "meta_ephemeris_type": 0,
        "meta_classification_type": "U",
        "meta_norad_cat_id": 67056,
        "meta_element_set_no": 999,
        "meta_rev_at_epoch": 130,
        "meta_bstar": -0.0047847573,
        "meta_mean_motion_dot": -0.01726863,
        "meta_mean_motion_ddot": 0.00083059086,
        "tle_line1": "1 67056U 25294AC  25353.25002315 -.01726863  83059-3 -47848-2 0  9998",
        "tle_line2": "2 67056  43.0000 142.3593 0001922 257.2556  50.9123 15.93011475  1306"
      },
      "geometry": {
        "type": "Point",
        "coordinates": [
          168.74176826060125,
          24.45473853514599
        ]
      }
    },
    {
      "type": "Feature",
      "properties": {
        "norad_id": 67057,
        "name": "STARLINK-36141",
        "group": "last-30-days",
        "lat": 23.28820375871609,
        "lon": 167.0458669854882,
        "alt_km": 295.433916751439,
        "timestamp": "2025-12-19T16:54:42.971043+00:00",
        "meta_object_name": "STARLINK-36141",
        "meta_object_id": "2025-294AD",
        "meta_epoch": "2025-12-19T06:00:02.000160",
        "meta_mean_motion": 15.92959006,
        "meta_eccentricity": 0.00016717,
        "meta_inclination": 43,
        "meta_ra_of_asc_node": 142.3646,
        "meta_arg_of_pericenter": 259.367,
        "meta_mean_anomaly": 46.9449,
        "meta_ephemeris_type": 0,
        "meta_classification_type": "U",
        "meta_norad_cat_id": 67057,
        "meta_element_set_no": 999,
        "meta_rev_at_epoch": 130,
        "meta_bstar": -0.0047979206,
        "meta_mean_motion_dot": -0.01726763,
        "meta_mean_motion_ddot": 0.00083007077,
        "tle_line1": "1 67057U 25294AD  25353.25002315 -.01726763  83007-3 -47979-2 0  9996",
        "tle_line2": "2 67057  43.0000 142.3646 0001671 259.3670  46.9449 15.92959006  1303"
      },
      "geometry": {
        "type": "Point",
        "coordinates": [
          167.0458669854882,
          23.28820375871609
        ]
      }
    },
    {
      "type": "Feature",
      "properties": {
        "norad_id": 67058,
        "name": "STARLINK-35767",
        "group": "last-30-days",
        "lat": 22.231159009082372,
        "lon": 165.55531016422415,
        "alt_km": 295.75484332849464,
        "timestamp": "2025-12-19T16:54:42.971055+00:00",
        "meta_object_name": "STARLINK-35767",
        "meta_object_id": "2025-294AE",
        "meta_epoch": "2025-12-19T06:00:02.000160",
        "meta_mean_motion": 15.92902391,
        "meta_eccentricity": 0.00016986,
        "meta_inclination": 43.0004,
        "meta_ra_of_asc_node": 142.3684,
        "meta_arg_of_pericenter": 258.3883,
        "meta_mean_anomaly": 46.2779,
        "meta_ephemeris_type": 0,
        "meta_classification_type": "U",
        "meta_norad_cat_id": 67058,
        "meta_element_set_no": 999,
        "meta_rev_at_epoch": 130,
        "meta_bstar": -0.0048004414,
        "meta_mean_motion_dot": -0.01722595,
        "meta_mean_motion_ddot": 0.00082590946,
        "tle_line1": "1 67058U 25294AE  25353.25002315 -.01722595  82591-3 -48004-2 0  9993",
        "tle_line2": "2 67058  43.0004 142.3684 0001698 258.3883  46.2779 15.92902391  1308"
      },
      "geometry": {
        "type": "Point",
        "coordinates": [
          165.55531016422415,
          22.231159009082372
        ]
      }
    },
    {
      "type": "Feature",
      "properties": {
        "norad_id": 67059,
        "name": "HULIANWANG DIGUI-119",
        "group": "last-30-days",
        "lat": -31.31273831675721,
        "lon": -47.870441743647504,
        "alt_km": 803.1055139425498,
        "timestamp": "2025-12-19T16:54:42.971066+00:00",
        "meta_object_name": "HULIANWANG DIGUI-119",
        "meta_object_id": "2025-295A",
        "meta_epoch": "2025-12-17T11:16:29.850816",
        "meta_mean_motion": 14.25569756,
        "meta_eccentricity": 0.00138963,
        "meta_inclination": 50.007,
        "meta_ra_of_asc_node": 352.2731,
        "meta_arg_of_pericenter": 264.5159,
        "meta_mean_anomaly": 95.417,
        "meta_ephemeris_type": 0,
        "meta_classification_type": "U",
        "meta_norad_cat_id": 67059,
        "meta_element_set_no": 999,
        "meta_rev_at_epoch": 79,
        "meta_bstar": -9.003402e-06,
        "meta_mean_motion_dot": -1.82e-06,
        "meta_mean_motion_ddot": 0,
        "tle_line1": "1 67059U 25295A   25351.46978994 -.00000182  00000+0 -90034-5 0  9995",
        "tle_line2": "2 67059  50.0070 352.2731 0013896 264.5159  95.4170 14.25569756   795"
      },
      "geometry": {
        "type": "Point",
        "coordinates": [
          -47.870441743647504,
          -31.31273831675721
        ]
      }
    },
    {
      "type": "Feature",
      "properties": {
        "norad_id": 67060,
        "name": "HULIANWANG DIGUI-120",
        "group": "last-30-days",
        "lat": -28.782744924883605,
        "lon": -44.636225716327274,
        "alt_km": 803.4139394602798,
        "timestamp": "2025-12-19T16:54:42.971077+00:00",
        "meta_object_name": "HULIANWANG DIGUI-120",
        "meta_object_id": "2025-295B",
        "meta_epoch": "2025-12-15T17:12:24.401376",
        "meta_mean_motion": 14.25706335,
        "meta_eccentricity": 0.00132237,
        "meta_inclination": 50.005,
        "meta_ra_of_asc_node": 359.6709,
        "meta_arg_of_pericenter": 257.265,
        "meta_mean_anomaly": 102.6786,
        "meta_ephemeris_type": 0,
        "meta_classification_type": "U",
        "meta_norad_cat_id": 67060,
        "meta_element_set_no": 999,
        "meta_rev_at_epoch": 54,
        "meta_bstar": 6.6896441e-05,
        "meta_mean_motion_dot": 0,
        "meta_mean_motion_ddot": 0,
        "tle_line1": "1 67060U 25295B   25349.71694909  .00000000  00000+0  66896-4 0  9998",
        "tle_line2": "2 67060  50.0050 359.6709 0013223 257.2650 102.6786 14.25706335   543"
      },
      "geometry": {
        "type": "Point",
        "coordinates": [
          -44.636225716327274,
          -28.782744924883605
        ]
      }
    }
  ]
}